25478,ORBCOMM FM24,1998,100.36,-1.0,-,45.01,Inactive,0,LEO,Eastern Range Airspace,ORBCOMM,Unknown,Unknown,Pegasus,1 25478U 98053D   23316.26919022  .00001272  00000+0  49290-3 0  9995,2 25478  45.0066 145.4290 0001353 169.0116 191.0760 14.34883159313917,14.34883159,0.0001353,LEO
25479,ORBCOMM FM25,1998,100.36,-1.0,-,45.01,Inactive,0,LEO,Eastern Range Airspace,ORBCOMM,Unknown,Unknown,Pegasus,1 25479U 98053E   23315.88526499  .00001290  00000+0  49913-3 0  9997,2 25479  45.0056 145.4745 0003655 199.4184 160.6524 14.34866213313878,14.34866213,0.0003655,LEO
25480,ORBCOMM FM26,1998,100.39,-1.0,-,45.01,Inactive,0,LEO,Eastern Range Airspace,ORBCOMM,Unknown,Unknown,Pegasus,1 25480U 98053F   23315.82915543  .00001583  00000+0  60663-3 0  9995,2 25480  45.0048 139.1769 0005556 224.9603 135.0794 14.34421484313815,14.34421484,0.0005556,LEO
25482,ORBCOMM FM28,1998,100.33,-1.0,-,45.0,Inactive,0,LEO,Eastern Range Airspace,ORBCOMM,Unknown,Unknown,Pegasus,1 25482U 98053H   23315.63703611  .00001908  00000+0  70826-3 0  9990,2 25482  45.0046  86.0089 0004574 241.5155 118.5232 14.35330371314433,14.35330371,0.0004574,LEO
25980,ORBCOMM FM30,1999,100.38,45.0,-,45.03,Inactive,1,LEO,Eastern Range Airspace,ORBCOMM,Commercial,Communications,Pegasus,1 25980U 99065A   23315.39057228  .00001577  00000+0  60303-3 0  9997,2 25980  45.0327 326.5974 0007522 314.5639  45.4594 14.34553096250547,14.34553096,0.0007522,LEO
25981,ORBCOMM FM31,1999,100.38,45.0,-,45.02,Inactive,1,LEO,Eastern Range Airspace,ORBCOMM,Commercial,Communications,Pegasus,1 25981U 99065B   23315.70588388  .00001472  00000+0  56613-3 0  9992,2 25981  45.0237 318.9489 0004273 325.0631  34.9935 14.34578672250148,14.34578672,0.0004273,LEO
25481,ORBCOMM FM27,1998,100.36,45.0,+,45.0,Active,1,LEO,Eastern Range Airspace,ORBCOMM,Commercial,Communications,Pegasus,1 25481U 98053G   23316.49715552  .00001478  00000+0  56532-3 0  9991,2 25481  45.0038 142.8456 0000510  71.2275 288.8627 14.34841594313890,14.34841594,5.1e-05,LEO
